{"type": "FeatureCollection", "features": [{"type": "Feature", "id": 2018203, "properties": {"name": "Wayanad", "official_name": "Wayanad District", "state": "Kerala", "osm_relation": 2018203, "lgd_district_code": "567", "source": "OpenStreetMap (ODbL)"}, "geometry": {"type": "Polygon", "coordinates": [[[75.773149, 11.8039869], [75.7810306, 11.7990745], [75.7827472, 11.7975412], [75.7936692, 11.7907987], [75.7944631, 11.7889923], [75.7940125, 11.7846862], [75.7925749, 11.7799389], [75.7902574, 11.7768511], [75.7887554, 11.7760108], [75.788219, 11.7751076], [75.788455, 11.7737212], [75.789485, 11.7727339], [75.789957, 11.7715155], [75.7885837, 11.7670621], [75.788455, 11.7655916], [75.7874894, 11.7641001], [75.7846999, 11.7630708], [75.7839489, 11.7614112], [75.7843137, 11.7596676], [75.7858372, 11.7584072], [75.7889914, 11.757756], [75.7942271, 11.7537645], [75.7981539, 11.7530293], [75.8001709, 11.7519579], [75.8001065, 11.7489747], [75.7977247, 11.7467268], [75.7959437, 11.7459285], [75.7940661, 11.7444474], [75.7940661, 11.7429978], [75.7945275, 11.7427563], [75.7990765, 11.7429663], [75.8019089, 11.7436806], [75.8084535, 11.742105], [75.8109855, 11.742231], [75.8118653, 11.739815], [75.8139896, 11.739836], [75.8150625, 11.7393108], [75.8195257, 11.7340586], [75.8211779, 11.7339115], [75.8217293, 11.7329961], [75.8219616, 11.7309921], [75.8238387, 11.7293945], [75.8248472, 11.7277557], [75.827465, 11.7269573], [75.8277225, 11.7257388], [75.8306193, 11.7245622], [75.8315635, 11.7217889], [75.8328938, 11.720066], [75.8372068, 11.7196668], [75.8387303, 11.7192466], [75.8410048, 11.718028], [75.8453607, 11.714099], [75.8460045, 11.7122291], [75.8459186, 11.7074596], [75.846498, 11.7062199], [75.8539223, 11.70269], [75.8565187, 11.7023328], [75.8627414, 11.7047071], [75.8638358, 11.704623], [75.8659172, 11.702795], [75.8675694, 11.7021016], [75.8735347, 11.7018075], [75.8760452, 11.7042868], [75.8773541, 11.7042868], [75.8801865, 11.7018285], [75.8821606, 11.6993701], [75.8877611, 11.69916], [75.8922028, 11.6995382], [75.8968377, 11.6987187], [75.8996486, 11.6988658], [75.9006202, 11.698575], [75.9046912, 11.6955879], [75.9081888, 11.6944533], [75.913918, 11.6913645], [75.9155059, 11.688948], [75.9152913, 11.6876242], [75.9137463, 11.6861743], [75.9102273, 11.6838209], [75.9073734, 11.6829173], [75.9057426, 11.6806479], [75.9033823, 11.6790719], [75.9018802, 11.6774959], [75.9013867, 11.6755626], [75.902524, 11.6721584], [75.9041977, 11.6689852], [75.9053778, 11.6631853], [75.9054851, 11.6606215], [75.9042191, 11.6579736], [75.9033447, 11.6570122], [75.9034896, 11.6526567], [75.9030819, 11.6508494], [75.9006786, 11.6472767], [75.8992839, 11.6444186], [75.8979535, 11.6433047], [75.8976531, 11.642401], [75.9000564, 11.6358281], [75.8995789, 11.6287086], [75.898506, 11.6270115], [75.8979857, 11.6254982], [75.89827, 11.6225978], [75.9013867, 11.6198812], [75.9022343, 11.6156671], [75.9044874, 11.6143745], [75.9058821, 11.6124828], [75.9063434, 11.6093405], [75.9070837, 11.6078377], [75.9081137, 11.6034868], [75.9092188, 11.6017001], [75.9102058, 11.6010485], [75.9135961, 11.6006282], [75.9155917, 11.5998294], [75.9166002, 11.5990202], [75.9172118, 11.5980112], [75.9182282, 11.5950794], [75.9190467, 11.5943539], [75.9212346, 11.5937159], [75.9228165, 11.592336], [75.9238369, 11.5920948], [75.9246137, 11.5924563], [75.9268002, 11.5921764], [75.9272489, 11.5928601], [75.9283832, 11.5911039], [75.9306454, 11.5895308], [75.9343692, 11.5903525], [75.9363518, 11.5895266], [75.9383718, 11.5893896], [75.940468, 11.5837138], [75.9460068, 11.5811844], [75.947197, 11.579979], [75.9508896, 11.5810423], [75.951904, 11.5808521], [75.9526825, 11.5803089], [75.9557114, 11.5763044], [75.9571152, 11.5757933], [75.9581375, 11.5748167], [75.9581115, 11.5733538], [75.9572678, 11.5723495], [75.9581604, 11.5702992], [75.9576571, 11.5682972], [75.9586868, 11.5673971], [75.9589233, 11.5667896], [75.9594192, 11.5615149], [75.9587633, 11.5595111], [75.9642921, 11.5567024], [75.9660815, 11.5554351], [75.9712556, 11.5507205], [75.9744866, 11.5463394], [75.9769355, 11.5439318], [75.9811235, 11.5405933], [75.9852218, 11.5405851], [75.9925587, 11.5364328], [75.9945394, 11.5367944], [75.9961638, 11.5358154], [75.9989687, 11.529956], [75.9995194, 11.5273367], [76.0028735, 11.5255614], [76.0044083, 11.523816], [76.0070615, 11.5226009], [76.0124132, 11.5223081], [76.0141917, 11.5213549], [76.0146183, 11.5189939], [76.0168829, 11.5177973], [76.0182197, 11.5164063], [76.0187707, 11.5147211], [76.021001, 11.5142147], [76.0254209, 11.5146054], [76.0278731, 11.5141943], [76.0301272, 11.5126513], [76.0339775, 11.5113258], [76.0374168, 11.5085053], [76.0386287, 11.5051525], [76.0435388, 11.5061428], [76.044648, 11.5078127], [76.0490138, 11.5048444], [76.0535507, 11.5033688], [76.05467, 11.5037042], [76.0559438, 11.5053947], [76.0565014, 11.508242], [76.057625, 11.5091917], [76.061458, 11.5102881], [76.0630722, 11.5104559], [76.0648531, 11.5133377], [76.067298, 11.5155833], [76.0675828, 11.5171011], [76.0713915, 11.518051], [76.0726077, 11.522078], [76.0751471, 11.5241214], [76.0756038, 11.5249006], [76.0760984, 11.524959], [76.0771409, 11.5241715], [76.0812632, 11.5192545], [76.082128, 11.5171631], [76.0823421, 11.5152217], [76.0835683, 11.5143585], [76.0858443, 11.5139176], [76.0861861, 11.5142801], [76.0885279, 11.5134645], [76.0896399, 11.5122716], [76.0889275, 11.5086692], [76.0888762, 11.5058554], [76.0893871, 11.5035585], [76.0914754, 11.4990087], [76.0909625, 11.4958451], [76.0914663, 11.494193], [76.0923053, 11.4931103], [76.0909049, 11.4923813], [76.0892772, 11.4905475], [76.0884112, 11.4892946], [76.0881369, 11.487737], [76.0896745, 11.48654], [76.0912772, 11.483091], [76.0922046, 11.481961], [76.0944965, 11.4827145], [76.0961236, 11.4836731], [76.1017877, 11.4834768], [76.106116, 11.481919], [76.1069544, 11.4809994], [76.1083891, 11.4803708], [76.111959, 11.480347], [76.1137219, 11.4774702], [76.1147905, 11.476615], [76.1163118, 11.4761457], [76.1189011, 11.4762529], [76.122205, 11.4749293], [76.1241532, 11.4736128], [76.1246663, 11.469403], [76.1258906, 11.4669274], [76.1279252, 11.4660456], [76.1282034, 11.4654039], [76.1297648, 11.4640184], [76.1309493, 11.4639639], [76.1326097, 11.4613946], [76.1353748, 11.4602459], [76.1376807, 11.4578861], [76.1404134, 11.4558702], [76.1433419, 11.451361], [76.1438473, 11.4518731], [76.1461959, 11.4519238], [76.1482461, 11.4530083], [76.1508818, 11.4522716], [76.1528967, 11.4536689], [76.1569291, 11.4553921], [76.1581636, 11.4567775], [76.1588996, 11.4569795], [76.1598267, 11.4560097], [76.1612941, 11.4560103], [76.1647056, 11.4595866], [76.1674098, 11.4641372], [76.1690669, 11.466241], [76.171027, 11.4671029], [76.1753372, 11.4682765], [76.1772859, 11.4709391], [76.1800072, 11.4715408], [76.182909, 11.4749611], [76.1862272, 11.4756257], [76.1865622, 11.4776564], [76.1859331, 11.4791511], [76.1820288, 11.483704], [76.1828056, 11.4843169], [76.1847802, 11.4840407], [76.1852839, 11.4849542], [76.1849527, 11.4854997], [76.185209, 11.4878268], [76.1850109, 11.4883728], [76.1859355, 11.4885298], [76.1856638, 11.4894604], [76.1859209, 11.4897696], [76.186652, 11.4897183], [76.1872141, 11.4903465], [76.1883587, 11.4904556], [76.1876758, 11.491432], [76.1899625, 11.4931792], [76.1886708, 11.4945928], [76.189831, 11.4949984], [76.1899714, 11.4954389], [76.1911381, 11.4956288], [76.1912602, 11.4965115], [76.1919297, 11.4968491], [76.192899, 11.4987197], [76.1954278, 11.5011598], [76.1970382, 11.5022204], [76.1970325, 11.5038864], [76.2002043, 11.5070095], [76.2017278, 11.5076088], [76.2042705, 11.5070411], [76.2049679, 11.5071567], [76.2091092, 11.5094907], [76.2117163, 11.5096694], [76.2138835, 11.5103632], [76.2164048, 11.5101004], [76.2201063, 11.5118245], [76.2210611, 11.5117667], [76.2213136, 11.5120999], [76.222692, 11.5124592], [76.224249, 11.5122885], [76.2259465, 11.5131721], [76.2265756, 11.5138011], [76.226606, 11.5156006], [76.2271971, 11.5169244], [76.2272556, 11.5191225], [76.2278634, 11.5202139], [76.2277498, 11.5215868], [76.2290944, 11.5238709], [76.229107, 11.524697], [76.2302492, 11.5256641], [76.2304442, 11.5262944], [76.2317649, 11.527025], [76.2320467, 11.527858], [76.2340291, 11.5292791], [76.2354361, 11.529016], [76.2368269, 11.5278012], [76.2392613, 11.5264662], [76.2404641, 11.5273546], [76.2406464, 11.5278968], [76.2415439, 11.5278558], [76.242045, 11.5270858], [76.2432661, 11.5274229], [76.243544, 11.5266894], [76.2441089, 11.5265755], [76.2443094, 11.5271131], [76.2451523, 11.5272544], [76.2470248, 11.5268853], [76.2476262, 11.5278193], [76.250624, 11.5275961], [76.250952, 11.5280152], [76.2500226, 11.5300836], [76.2505056, 11.5317511], [76.2503051, 11.5336738], [76.250919, 11.5356883], [76.2508974, 11.5367719], [76.2518815, 11.5377559], [76.2518177, 11.5381113], [76.2511981, 11.5380111], [76.2499588, 11.5369814], [76.249239, 11.5386945], [76.2477591, 11.5402887], [76.2468516, 11.5410727], [76.2454423, 11.5407573], [76.2450308, 11.5419939], [76.2440872, 11.5427454], [76.2438902, 11.5432687], [76.2442274, 11.544025], [76.2459191, 11.5449976], [76.2465145, 11.5460388], [76.2450839, 11.5477883], [76.2430155, 11.5483532], [76.2421145, 11.5505983], [76.242159, 11.5511506], [76.2427968, 11.5517975], [76.2424003, 11.5528008], [76.2427057, 11.5535562], [76.244355, 11.5537111], [76.2431339, 11.5548045], [76.2421681, 11.5551417], [76.2421863, 11.5560255], [76.2417125, 11.5560984], [76.2409653, 11.5556246], [76.2404394, 11.5557588], [76.2398081, 11.5581304], [76.2389515, 11.5583855], [76.2383684, 11.5592512], [76.2390244, 11.5604175], [76.2382681, 11.5611556], [76.2375847, 11.5611282], [76.2364822, 11.5630418], [76.2356564, 11.5666725], [76.2331657, 11.5691711], [76.2330606, 11.5704088], [76.2341769, 11.570951], [76.2344047, 11.5721629], [76.2352217, 11.5723509], [76.2379766, 11.5743634], [76.2390335, 11.5746322], [76.2392522, 11.5754796], [76.2407831, 11.5757621], [76.2409607, 11.5765093], [76.2421681, 11.5767143], [76.2423549, 11.5772018], [76.2442365, 11.5777121], [76.2445994, 11.5784178], [76.2490841, 11.5801541], [76.2503205, 11.5816509], [76.2515565, 11.5818107], [76.258187, 11.5883276], [76.2601552, 11.5886829], [76.2627794, 11.5906511], [76.2644605, 11.5906761], [76.2649299, 11.5938768], [76.2742567, 11.593513], [76.2746858, 11.5961615], [76.278921, 11.6008997], [76.2807629, 11.5985453], [76.286037, 11.5902759], [76.2890858, 11.5900315], [76.2912818, 11.590396], [76.2958988, 11.5904167], [76.2990829, 11.582848], [76.2993836, 11.578126], [76.2999174, 11.5750531], [76.3009113, 11.5729676], [76.3022669, 11.5712662], [76.310526, 11.577373], [76.3160051, 11.5765004], [76.317087, 11.580473], [76.3185024, 11.5826666], [76.3213696, 11.5860222], [76.3240677, 11.5883351], [76.3360207, 11.595719], [76.3399696, 11.5933199], [76.3407293, 11.5879837], [76.3439256, 11.5880185], [76.3475825, 11.5891908], [76.3542085, 11.5894227], [76.3599073, 11.5935313], [76.3674244, 11.5983069], [76.377511, 11.6017317], [76.3782191, 11.6085418], [76.3838651, 11.6119931], [76.3831065, 11.6164677], [76.3835445, 11.624401], [76.3882398, 11.6297954], [76.3965011, 11.6315985], [76.4063439, 11.6342232], [76.4263235, 11.6329602], [76.4302861, 11.630101], [76.4326787, 11.6314934], [76.4350819, 11.6358229], [76.4409783, 11.6402799], [76.4435318, 11.6447354], [76.4395728, 11.6522695], [76.4358928, 11.6564936], [76.4333072, 11.6607701], [76.4326634, 11.6635231], [76.4312794, 11.6660763], [76.4295628, 11.6665386], [76.4284738, 11.6699324], [76.427009, 11.6700767], [76.4265485, 11.6711156], [76.4220618, 11.671388], [76.4208242, 11.6723814], [76.4190915, 11.6708255], [76.4157324, 11.672535], [76.4149448, 11.6749338], [76.4154598, 11.6762156], [76.4143723, 11.6769349], [76.414164, 11.6788441], [76.4133826, 11.6794977], [76.4131638, 11.6801977], [76.4140328, 11.6817526], [76.4126354, 11.6820992], [76.4121338, 11.6827665], [76.4128419, 11.6853564], [76.4126327, 11.6863125], [76.4115008, 11.6864123], [76.4110146, 11.686838], [76.4110961, 11.6873399], [76.4103491, 11.6880082], [76.4090128, 11.6876947], [76.4082708, 11.68912], [76.4084163, 11.689643], [76.4096684, 11.690573], [76.4097198, 11.6924639], [76.4116242, 11.6952533], [76.4111502, 11.6965827], [76.411296, 11.6973983], [76.4095328, 11.6982593], [76.4094189, 11.6986329], [76.4102754, 11.6991159], [76.4103797, 11.6995398], [76.4094918, 11.7006148], [76.4085984, 11.7026056], [76.4090443, 11.7051091], [76.4088859, 11.7057458], [76.4075509, 11.7070114], [76.4066853, 11.7054578], [76.405243, 11.705161], [76.4030496, 11.7076447], [76.4039927, 11.708688], [76.4033505, 11.7092827], [76.4032517, 11.7114577], [76.4035736, 11.7116312], [76.4047991, 11.7107701], [76.4053276, 11.7108202], [76.4064119, 11.7118727], [76.4067719, 11.7132212], [76.4079606, 11.7146447], [76.4093141, 11.7146883], [76.4107551, 11.7155605], [76.4118746, 11.7153808], [76.4126814, 11.7148775], [76.412763, 11.7110936], [76.4133131, 11.7106979], [76.4140552, 11.71115], [76.415852, 11.7130162], [76.4157791, 11.7145562], [76.4171661, 11.7176509], [76.4178111, 11.7182192], [76.4200617, 11.7184105], [76.4214103, 11.7195678], [76.4239928, 11.7200605], [76.4249325, 11.7210325], [76.4250031, 11.7227149], [76.4259207, 11.723577], [76.4260848, 11.7246887], [76.4272693, 11.725609], [76.4273969, 11.7261284], [76.4262109, 11.7266639], [76.4253151, 11.7306243], [76.4222779, 11.7376107], [76.4189552, 11.7412573], [76.4182891, 11.7424533], [76.4179967, 11.7426005], [76.4160128, 11.7417884], [76.41282, 11.7394987], [76.4102618, 11.7415322], [76.4105397, 11.7422248], [76.4119362, 11.7425431], [76.4123755, 11.744287], [76.4126491, 11.7460655], [76.4120448, 11.7488679], [76.4127989, 11.7529074], [76.4146384, 11.7535492], [76.4157375, 11.7550014], [76.4152369, 11.7568359], [76.4133992, 11.7586585], [76.4112916, 11.7591313], [76.4095768, 11.7587458], [76.4087628, 11.7577106], [76.4062206, 11.7568632], [76.4053261, 11.7569048], [76.4007383, 11.7521964], [76.3985724, 11.751519], [76.396006, 11.7525897], [76.3942656, 11.7540202], [76.3934911, 11.7554053], [76.3910218, 11.7545396], [76.3863929, 11.7483981], [76.3853687, 11.7479991], [76.3838962, 11.7466122], [76.3810259, 11.7463388], [76.3790233, 11.745119], [76.3765155, 11.7445438], [76.3688978, 11.7477421], [76.3670025, 11.748061], [76.365335, 11.7476965], [76.3623841, 11.7481676], [76.3591935, 11.7451543], [76.3566148, 11.7433045], [76.3540112, 11.7395033], [76.3527422, 11.7383385], [76.351585, 11.7380105], [76.3503184, 11.7392952], [76.3480951, 11.7394502], [76.3435903, 11.7391656], [76.3418534, 11.7382474], [76.3403408, 11.7382109], [76.3394296, 11.7404889], [76.3370696, 11.7415095], [76.3356937, 11.7440608], [76.3316115, 11.7463024], [76.330026, 11.7476965], [76.3271782, 11.7487664], [76.3224722, 11.7493731], [76.319939, 11.7501659], [76.3177683, 11.7512857], [76.3166131, 11.7529086], [76.3167589, 11.7545579], [76.3146814, 11.7564896], [76.3143898, 11.7575739], [76.3143351, 11.7615468], [76.3116059, 11.7677444], [76.308385, 11.7787958], [76.308036, 11.7829902], [76.3075103, 11.7844726], [76.3055603, 11.7859123], [76.3041115, 11.7860945], [76.3013597, 11.7855933], [76.2936873, 11.79199], [76.2906406, 11.7925303], [76.2880743, 11.795653], [76.2852951, 11.8001088], [76.2813223, 11.8105244], [76.2804932, 11.8115352], [76.2778664, 11.8121625], [76.2766389, 11.8121347], [76.2742484, 11.8109939], [76.272994, 11.8107516], [76.2681613, 11.8099243], [76.2602181, 11.8092868], [76.2569245, 11.8081094], [76.2462958, 11.8030155], [76.2445645, 11.8030337], [76.2413935, 11.8041089], [76.2386599, 11.80338], [76.2266702, 11.8060783], [76.2218756, 11.8101411], [76.2180506, 11.8149775], [76.2182081, 11.8196495], [76.2170235, 11.8218637], [76.2161123, 11.8216313], [76.2157524, 11.8219275], [76.2156476, 11.8234765], [76.214627, 11.823358], [76.2136332, 11.8239697], [76.2122124, 11.8261235], [76.2111463, 11.826775], [76.2111371, 11.8277728], [76.2104173, 11.8276726], [76.2100164, 11.8281008], [76.2100619, 11.8292398], [76.2111235, 11.8327206], [76.2107863, 11.8341421], [76.2121577, 11.8393633], [76.2117112, 11.8401697], [76.2130233, 11.8416595], [76.2132284, 11.8427575], [76.2128229, 11.8433133], [76.2120802, 11.8432951], [76.2122169, 11.8440696], [76.2106724, 11.8445434], [76.2111204, 11.8455063], [76.2102897, 11.8474821], [76.2103353, 11.8486757], [76.2097385, 11.8496279], [76.2100209, 11.8504161], [76.2093011, 11.8514914], [76.2094503, 11.8529319], [76.2087179, 11.8539425], [76.2088273, 11.8550633], [76.2081347, 11.8561749], [76.2076974, 11.8608767], [76.2071598, 11.8618608], [76.2023285, 11.8627019], [76.2012552, 11.8637652], [76.2003977, 11.8658739], [76.1958063, 11.8690108], [76.1918737, 11.8710337], [76.1879226, 11.8722375], [76.1863323, 11.8722108], [76.1846731, 11.8716303], [76.1794502, 11.8708908], [76.1737022, 11.8720427], [76.1707666, 11.8710484], [76.166924, 11.8686468], [76.1652081, 11.8682848], [76.1638472, 11.868372], [76.1596125, 11.8705652], [76.1576781, 11.8707887], [76.1561355, 11.8705406], [76.1494557, 11.866588], [76.1469022, 11.8672113], [76.1459027, 11.8671198], [76.1449197, 11.8663857], [76.1406833, 11.8611126], [76.1389382, 11.8596193], [76.1356859, 11.8580231], [76.1335468, 11.8548421], [76.1322743, 11.8538347], [76.1301369, 11.8531582], [76.126417, 11.8530247], [76.1229029, 11.8511992], [76.1201314, 11.8506066], [76.1191625, 11.8527523], [76.1174338, 11.8542067], [76.1166794, 11.8560894], [76.1178348, 11.8570861], [76.116304, 11.8577422], [76.112789, 11.8583375], [76.1148643, 11.8665262], [76.1124405, 11.8805769], [76.1118026, 11.8876296], [76.1133881, 11.8947005], [76.1132788, 11.9185739], [76.1126569, 11.9340252], [76.1125536, 11.9786826], [76.1043855, 11.9754146], [76.0939249, 11.9685988], [76.0896605, 11.9673414], [76.0851045, 11.9676876], [76.081569, 11.9685259], [76.0785566, 11.9687773], [76.0741883, 11.9682708], [76.0705981, 11.9672685], [76.0689142, 11.9654658], [76.0679921, 11.9636237], [76.0617777, 11.9601611], [76.056675, 11.9568079], [76.051791, 11.9515776], [76.0496223, 11.9513589], [76.0480186, 11.9519239], [76.0447201, 11.9504295], [76.0422598, 11.9459464], [76.0402916, 11.9457277], [76.0389613, 11.945017], [76.0377038, 11.9431034], [76.0336437, 11.9400877], [76.0318539, 11.9398049], [76.0279618, 11.940955], [76.0272615, 11.9423198], [76.0260769, 11.9434497], [76.0220676, 11.9439964], [76.020555, 11.9425932], [76.0161813, 11.9409712], [76.0128827, 11.9417366], [76.0106958, 11.9408437], [76.0098708, 11.9398517], [76.0076889, 11.9391215], [76.0065863, 11.9382103], [76.0036262, 11.9312137], [75.9997493, 11.9312479], [75.9972101, 11.9319595], [75.9943489, 11.9321326], [75.9912599, 11.9339823], [75.9870411, 11.9336634], [75.9854647, 11.9330711], [75.9784576, 11.9343741], [75.9763891, 11.9340826], [75.9708294, 11.9364258], [75.9671951, 11.9372718], [75.9653752, 11.9382536], [75.9564504, 11.9416046], [75.953672, 11.9416487], [75.9518961, 11.9408254], [75.9479597, 11.9416455], [75.9453592, 11.9414225], [75.9383031, 11.9416556], [75.9383583, 11.9393051], [75.9371889, 11.9370063], [75.9365971, 11.9341764], [75.9324574, 11.9353058], [75.9301078, 11.9355473], [75.9279621, 11.934802], [75.925709, 11.9326501], [75.9250116, 11.9308026], [75.926106, 11.9254071], [75.9250331, 11.921838], [75.9249473, 11.9208722], [75.9252798, 11.9200114], [75.9290135, 11.9181114], [75.9307408, 11.9165052], [75.9322858, 11.91323], [75.9348392, 11.9123167], [75.9355152, 11.9116763], [75.9365666, 11.9089678], [75.9374249, 11.9048211], [75.938235, 11.903829], [75.9377789, 11.902606], [75.9359872, 11.9002229], [75.9354079, 11.8979133], [75.9357083, 11.8920762], [75.9352791, 11.88984], [75.9330153, 11.8858609], [75.9320068, 11.8846956], [75.929153, 11.8826063], [75.9264386, 11.8819239], [75.9252798, 11.8809685], [75.9194648, 11.880475], [75.9166753, 11.8782597], [75.9122658, 11.8761389], [75.9117293, 11.8755089], [75.9118903, 11.874312], [75.9123409, 11.8737241], [75.91748, 11.8712672], [75.920248, 11.8704063], [75.9263742, 11.8637286], [75.9278762, 11.8629411], [75.9288633, 11.8620066], [75.9298718, 11.8605156], [75.930419, 11.8586257], [75.9301078, 11.8580692], [75.9293139, 11.8578592], [75.9264707, 11.8520002], [75.9261167, 11.8503307], [75.9262454, 11.8486716], [75.9275329, 11.844776], [75.9272754, 11.8432745], [75.9268463, 11.8429069], [75.925945, 11.8430959], [75.9254086, 11.8469601], [75.9237885, 11.8472961], [75.9195399, 11.8468971], [75.9158706, 11.8457001], [75.913167, 11.8461621], [75.9096694, 11.8456371], [75.9042191, 11.843852], [75.9003997, 11.843285], [75.8925032, 11.843306], [75.8913231, 11.843558], [75.8890486, 11.8458051], [75.8864093, 11.8475481], [75.8846068, 11.8460571], [75.8824825, 11.8455741], [75.8812165, 11.8460571], [75.879457, 11.8473801], [75.8727836, 11.8490602], [75.8635568, 11.8498372], [75.8607888, 11.8505512], [75.8593726, 11.8500892], [75.8538365, 11.8499422], [75.8351469, 11.8524832], [75.8289671, 11.8522732], [75.8263063, 11.8525042], [75.8228946, 11.8535752], [75.8203625, 11.8583212], [75.8192038, 11.8586992], [75.8174228, 11.8563472], [75.8165645, 11.8562422], [75.8132171, 11.8571242], [75.8098268, 11.8570192], [75.8069086, 11.8556332], [75.8054495, 11.8537852], [75.8051061, 11.8522732], [75.8058787, 11.8508032], [75.8055353, 11.8479051], [75.8030247, 11.8459101], [75.8006215, 11.845238], [75.7946348, 11.8456371], [75.7924032, 11.845028], [75.7901072, 11.8410799], [75.7899999, 11.8360606], [75.790987, 11.8336454], [75.7931113, 11.8314402], [75.7943988, 11.8305581], [75.7955789, 11.8303271], [75.796802, 11.829424], [75.7982611, 11.8271978], [75.7985401, 11.8239635], [75.7983041, 11.820246], [75.796566, 11.8185448], [75.7924032, 11.8153944], [75.7885194, 11.81321], [75.783906, 11.8119078], [75.7814383, 11.8104586], [75.7803654, 11.8074971], [75.7797003, 11.806636], [75.778048, 11.8055228], [75.773149, 11.8039869]]]}}]}